{
  "type": "FeatureCollection",
  "features": [
    {
      "type": "Feature",
      "properties": {
        "name": "impactzone"
      },
      "geometry": {
        "type": "MultiPolygon",
        "coordinates": [
          [
            [
              [
                -83.935916,
                35.963107
              ],
              [
                -83.943495,
                35.960709
              ],
              [
                -83.956714,
                35.956398
              ],
              [
                -83.965312,
                35.950685
              ],
              [
                -83.972884,
                35.945126
              ],
              [
                -83.973782,
                35.941542
              ],
              [
                -83.969804,
                35.940295
              ],
              [
                -83.961398,
                35.944659
              ],
              [
                -83.956265,
                35.948918
              ],
              [
                -83.947795,
                35.951204
              ],
              [
                -83.941955,
                35.956866
              ],
              [
                -83.935218,
                35.960657
              ],
              [
                -83.935916,
                35.963107
              ]
            ]
          ]
        ]
      }
    }
  ]
}